{
  "type": "FeatureCollection",
  "features": [
    {
      "type": "Feature",
      "geometry": {
        "type": "Point",
        "coordinates": [125.6, 10.1]
      },
      "properties": {
        "name": "Sample Point"
      }
    },
    {
      "type": "Feature",
      "geometry": {
        "type": "LineString",
        "coordinates": [
          [125.6, 10.1],
          [125.7, 10.2]
        ]
      },
      "properties": {
        "name": "Sample Line"
      }
    },
    {
      "type": "Feature",
      "geometry": {
        "type": "Polygon",
        "coordinates": [
          [
            [125.6, 10.1],
            [125.7, 10.1],
            [125.7, 10.2],
            [125.6, 10.2],
            [125.6, 10.1]
          ]
        ]
      },
      "properties": {
        "name": "Sample Polygon"
      }
    }
  ]
}